C/2020 H8 (PANSTARRS),e,99.7065,68.4440,128.8746,597.9007,0.0000674,0.99219142,0.0000,06/04.6459/2020,2000,g 10.5,4.0
# From MPEC 2022-ED3
A/2020 H9,e,137.8771,213.1636,312.7118,355.1657,0.0001473,0.99277530,0.0000,12/21.9234/2019,2000,g 18.0,2.0
# From MPEC 2023-HN7
C/2020 H11 (PANSTARRS-Lemmon),h,09/13.6709/2020,151.3827,303.0524,91.4020,1.000893,7.622474,2000,8.5,4.0
# From MPEC 2023-KD6
C/2020 J1 (SONEAR),h,04/18.4039/2021,142.3059,226.6061,341.6501,1.000180,3.347956,2000,8.5,3.2
# From MPEC 2024-Q20
C/2020 K1 (PANSTARRS),e,89.6723,94.3648,213.9779,4665,0.0000031,0.99934117,0.0000,05/08.9928/2023,2000,g  5.5,4.0
# From MPEC 2021-N06
C/2020 K2 (PANSTARRS),h,08/05.4915/2020,90.9988,288.4232,67.3340,1.002142,8.880485,2000,10.8,4.0
# From MPEC 2020-KF9
C/2020 K3 (Leonard),p,06/01.0032/2020,129.0152,64.4924,1.583069,28.3546,2000,14.5,4.0
# From MPEC 2020-L06
C/2020 K4 (PANSTARRS),e,125.5852,264.2660,308.8387,23.95809,0.0084048,0.92701640,13.9217,09/16.0/2024,2000,g 16.5,4.0
# From MPEC 2021-R75
C/2020 K5 (PANSTARRS),h,06/04.8741/2021,67.0752,86.1453,249.6336,1.001038,1.539016,2000,11.0,4.0
# From MPEC 2023-N01
C/2020 K6 (Rankin),h,09/15.3884/2021,103.6385,291.5873,44.3132,1.002979,5.867601,2000,8.0,4.0
# From MPEC 2023-A50
C/2020 K7 (PANSTARRS),e,32.0445,286.1181,358.1626,95.97148,0.0010483,0.93338928,1.8729,09/16.0/2024,2000,g  8.0,4.0
# From MPEC 2021-P47
C/2020 K8 (Catalina-ATLAS),h,09/15.4059/2020,31.4201,181.4273,260.0340,1.000268,0.470976,2000,15.0,3.2
# From MPEC 2021-BE3
P/2020 K9 (Lemmon-PANSTARRS),e,23.1983,166.3142,197.0872,4.205858,0.1142673,0.32060030,149.9139,09/16.0/2024,2000,g 12.5,4.0
# From MPEC 2023-C45
P/2020 M1 (PANSTARRS),e,8.5336,142.6042,72.5660,5.314299,0.0804517,0.47310259,139.0612,09/16.0/2024,2000,g 14.5,4.0
# From MPEC 2022-H30
C/2020 M3 (ATLAS),e,23.4722,71.1671,328.6233,27.25341,0.0069274,0.95333606,9.8441,09/16.0/2024,2000,g 14.5,4.0
# From MPEC 2023-N01
A/2020 M4,h,11/23.5209/2020,160.1127,348.6214,104.5462,1.000528,5.944594,2000,14.5,2.0
# From MPEC 2024-NE4
P/2020 MK4 (PANSTARRS),e,6.7843,0.6853,93.4914,6.220290,0.0635314,0.01409231,299.9988,09/16.0/2024,2000,g  8.0,4.0
# From MPEC 2023-FK0
C/2020 M5 (ATLAS),h,08/19.8468/2021,93.1929,352.0558,126.2556,1.000230,3.000138,2000,9.0,4.0
# From MPEC 2022-GA9
C/2020 N1 (PANSTARRS),h,03/12.8319/2021,29.7526,279.8730,186.7986,1.000697,1.316979,2000,12.5,4.0
# From MPEC 2021-P47
C/2020 N2 (ATLAS),e,161.0384,257.1813,331.2670,102.4710,0.0009502,0.98255322,0.0000,08/24.2747/2020,2000,g 16.0,3.2
# From MPEC 2024-JU4
C/2020 O2 (Amaral),h,08/27.8100/2021,71.7618,256.7926,10.2317,1.000334,4.859801,2000,8.0,3.2
# From MPEC 2023-C45
P/2020 O3 (PANSTARRS),e,8.4446,266.8189,81.4094,4.646629,0.0984005,0.10254852,130.6366,09/16.0/2024,2000,g 12.0,4.0
# From MPEC 2021-BE3
C/2020 P1 (NEOWISE),h,10/20.9526/2020,45.1640,53.4766,8.9108,1.000398,0.340920,2000,14.0,3.2
# From MPEC 2024-JU4
C/2020 P3 (ATLAS),h,04/22.3881/2021,61.8759,19.4751,82.3200,1.003117,6.814098,2000,6.0,4.0
# From MPEC 2022-PB4
C/2020 PV6 (PANSTARRS),e,128.1831,329.1405,71.3233,41.88734,0.0036356,0.94527500,3.9480,09/16.0/2024,2000,g 10.0,4.0
# From MPEC 2022-L66
C/2020 Q1 (Borisov),e,142.9426,52.3975,10.0015,61.92615,0.0020225,0.97869614,0.0000,08/14.8700/2020,2000,g 14.0,4.0
# From MPEC 2023-CD7
C/2020 Q2 (PANSTARRS),e,3.3353,179.8183,118.2772,10.61529,0.0284975,0.48956155,48.2843,09/16.0/2024,2000,g 12.0,3.2
# From MPEC 2024-F34
C/2020 R2 (PANSTARRS),e,53.2248,195.1075,211.8598,428.8381,0.0001110,0.98904826,0.0000,02/25.3228/2022,2000,g  9.0,4.0
# From MPEC 2022-K19
C/2020 R4 (ATLAS),e,164.4224,323.2516,46.5799,98.59334,0.0010068,0.98962608,0.0000,03/02.3826/2021,2000,g 13.5,4.0
# From MPEC 2023-C45
P/2020 R5 (PANSTARRS),e,11.4401,272.9450,82.7512,4.991497,0.0883808,0.31365955,138.8669,09/16.0/2024,2000,g  9.5,6.0
# From MPEC 2021-Y10
C/2020 R6 (Rankin),e,82.8490,12.2026,272.0016,296.3053,0.0001932,0.98940866,0.0000,09/07.3100/2019,2000,g 11.0,4.0
# From MPEC 2024-PC5
C/2020 R7 (ATLAS),h,09/16.1632/2022,114.9031,268.3047,347.8085,1.000016,2.954248,2000,7.0,3.2
# From MPEC 2021-BE3
P/2020 S1 (PANSTARRS),e,13.7190,129.5058,255.1035,5.999435,0.0670716,0.50733756,89.7084,09/16.0/2024,2000,g 14.0,4.0
# From MPEC 2022-ST7
C/2020 S2 (PANSTARRS),e,22.3930,197.7009,202.3854,10.24357,0.0300626,0.82813654,40.9965,09/16.0/2024,2000,g 17.0,4.0
# From MPEC 2024-JU4
C/2020 S3 (Erasmus),e,20.0319,222.5733,350.0526,143.7421,0.0005719,0.99725499,0.0000,12/11.4741/2020,2000,g 13.5,3.2
# From MPEC 2024-N80
C/2020 S4 (PANSTARRS),h,02/09.3660/2023,20.5680,117.6968,21.0218,1.002242,3.369818,2000,8.5,3.2
# From MPEC 2021-BE3
P/2020 S5 (PANSTARRS),e,12.3424,316.0396,53.2629,4.057026,0.1206125,0.33780632,180.8224,09/16.0/2024,2000,g 14.5,4.0
# From MPEC 2021-BE3
P/2020 S7 (PANSTARRS),e,16.0768,328.0908,40.6358,5.034980,0.0872383,0.41002402,121.9229,09/16.0/2024,2000,g 14.5,4.0
# From MPEC 2021-P47
C/2020 S8 (Lemmon),e,108.5319,24.0468,160.1776,246.0698,0.0002553,0.99042026,0.0000,04/10.5903/2021,2000,g 12.5,4.0
# From MPEC 2022-TD3
C/2020 T2 (Palomar),e,27.8378,83.0543,150.3949,280.2299,0.0002101,0.99266246,0.0000,07/10.6040/2021,2000,g 11.0,3.2
# From MPEC 2021-N06
P/2020 T3 (PANSTARRS),e,7.2992,73.9932,357.0597,3.516444,0.1494681,0.59244532,199.2907,09/16.0/2024,2000,g 18.0,3.2
# From MPEC 2021-N06
C/2020 T4 (PANSTARRS),h,07/05.7312/2021,83.8498,50.6186,79.5820,1.000496,2.189338,2000,13.0,3.2
# From MPEC 2021-BE3
C/2020 T5 (Lemmon),e,66.5445,237.8286,90.3735,649.4898,0.0000595,0.99708169,0.0000,10/08.4346/2020,2000,g 16.0,4.0
# From MPEC 2021-N06
P/2020 U2 (PANSTARRS),e,6.4196,342.8500,84.7148,3.777930,0.1342218,0.51139983,182.4205,09/16.0/2024,2000,g 18.0,4.0
# From MPEC 2021-W31
C/2020 U3 (Rankin),e,30.1421,282.6239,124.4373,67.41402,0.0017807,0.96615706,2.3464,09/16.0/2024,2000,g 15.0,4.0
# From MPEC 2024-RQ6
C/2020 U4 (PANSTARRS),h,04/09.7710/2022,167.0092,120.3886,70.1366,1.000878,5.360875,2000,7.0,4.0
# From MPEC 2024-GJ3
C/2020 U5 (PANSTARRS),e,97.2987,107.3148,75.4556,5207,0.0000026,0.99927850,0.0000,04/28.1266/2022,2000,g  8.0,4.0
# From MPEC 2024-RQ6
C/2020 V2 (ZTF),h,05/08.4708/2023,131.6128,212.3772,162.4144,1.000850,2.228223,2000,4.9,4.0
# From MPEC 2023-D72
P/2020 V3 (PANSTARRS),e,23.0284,198.2612,249.6321,8.400769,0.0404786,0.25779064,53.0527,09/16.0/2024,2000,g  8.3,4.0
# From MPEC 2024-F34
P/2020 V4 (Rankin),e,14.2419,203.4864,257.1542,9.388051,0.0342642,0.45135655,39.5497,09/16.0/2024,2000,g  9.0,4.0
# From MPEC 2021-BE3
P/2020 W1 (Rankin),e,10.7796,124.3915,265.3033,7.223209,0.0507702,0.26597435,82.2176,09/16.0/2024,2000,g 10.0,4.0
# From MPEC 2021-BE3
C/2020 W5 (Lemmon),h,11/30.6020/2020,88.6172,75.4661,24.5580,1.001721,3.368177,2000,15.0,4.0
# From MPEC 2024-PC5
P/2020 WJ5 (Lemmon),e,22.2888,177.7864,338.0541,6.015233,0.0668075,0.17184069,78.4351,09/16.0/2024,2000,g  8.5,4.0
# From MPEC 2024-F34
P/2020 X1 (ATLAS),e,31.6958,55.9810,323.5115,4.534428,0.1020752,0.36490295,154.9901,09/16.0/2024,2000,g 13.0,4.0
# From MPEC 2024-A43
C/2020 X2 (ATLAS),e,18.1853,105.3726,347.4899,16.51074,0.0146911,0.76809708,20.5551,09/16.0/2024,2000,g 10.6,4.0
# From MPEC 2021-S45
C/2020 X4 (Leonard),e,80.6409,161.9272,140.3149,40.67722,0.0037991,0.87155526,5.3197,09/16.0/2024,2000,g  9.0,4.0
# From MPEC 2024-RQ6
C/2020 Y2 (ATLAS),e,101.1886,26.5335,266.4124,1528,0.0000165,0.99794120,0.0000,06/18.0878/2022,2000,g  6.5,4.0
# From MPEC 2021-R75
C/2020 Y3 (ATLAS),e,83.1183,191.3967,341.8713,138.5268,0.0006045,0.98562078,0.0000,12/03.2406/2020,2000,g 13.5,4.0
# From MPEC 2023-CD7
C/2021 A1 (Leonard),h,01/03.4946/2022,132.7568,255.9128,225.1472,1.000159,0.616089,2000,8.5,4.0
# From MPEC 2022-F14
C/2021 A2 (NEOWISE),e,107.0284,125.1085,338.7728,228.3209,0.0002857,0.99380855,0.0000,01/22.0917/2021,2000,g 13.5,4.0
# From MPEC 2022-ED3
C/2021 A4 (NEOWISE),e,111.5976,307.0974,204.7321,42.40641,0.0035691,0.97289991,0.0000,03/19.5045/2021,2000,g 16.0,4.0
# From MPEC 2021-BE3
P/2021 A5 (PANSTARRS),e,18.1866,328.8154,61.4403,3.047162,0.1852937,0.13990729,259.7770,09/16.0/2024,2000,g 15.0,4.0
# From MPEC 2024-P23
C/2021 A6 (PANSTARRS),e,75.5778,164.0484,351.6092,9356,0.0000011,0.99915308,0.0000,05/02.8682/2021,2000,g  7.0,4.0
# From MPEC 2022-M88
C/2021 A7 (NEOWISE),e,78.1863,154.4452,355.9849,1811,0.0000128,0.99891485,0.0000,07/15.1275/2021,2000,g 10.0,4.0
# From MPEC 2024-GJ3
C/2021 A9 (PANSTARRS),h,12/02.8545/2023,158.0137,314.8360,211.5356,1.000961,7.760842,2000,6.0,4.0
# From MPEC 2021-N06
C/2021 A10 (NEOWISE),e,151.9692,188.7817,82.5540,89.36926,0.0011666,0.98585129,0.0000,03/14.8755/2021,2000,g 19.0,4.0
# From MPEC 2022-L66
C/2021 B2 (PANSTARRS),e,38.0835,120.4720,335.0474,390.6497,0.0001277,0.99356840,0.0000,05/04.7123/2021,2000,g 14.0,4.0
# From MPEC 2021-N06
C/2021 B3 (NEOWISE),e,119.4737,67.2716,293.5548,34.23774,0.0049198,0.93678139,6.3279,09/16.0/2024,2000,g 13.5,4.0
# From MPEC 2023-KD6
C/2021 C1 (Rankin),e,143.0426,186.8629,336.1175,2554,0.0000076,0.99863994,0.0000,12/06.3302/2020,2000,g 11.5,4.0
# From MPEC 2021-U31
P/2021 C2 (PANSTARRS),e,21.9409,66.4561,78.6972,9.539812,0.0334499,0.48800099,43.4868,09/16.0/2024,2000,g 12.0,4.0
# From MPEC 2024-M41
C/2021 C3 (Catalina),e,122.1827,181.8913,357.0002,60.77741,0.0020801,0.96259716,2.7301,09/16.0/2024,2000,g 14.0,4.0
# From MPEC 2022-M88
C/2021 C4 (ATLAS),e,132.8421,194.2563,320.0895,6928,0.0000017,0.99935103,0.0000,01/16.6073/2021,2000,g  9.0,4.0
# From MPEC 2024-N80
C/2021 C5 (PANSTARRS),e,50.7950,323.6729,270.9098,1744,0.0000135,0.99814171,0.0000,02/10.9808/2023,2000,g  9.0,4.0
# From MPEC 2022-YB4
C/2021 C6 (Lemmon),e,164.6049,332.3428,203.8223,2946,0.0000062,0.99888649,0.0000,11/12.2377/2021,2000,g 12.0,4.0
# From MPEC 2022-F14
C/2021 D1 (SWAN),e,31.3856,311.2147,72.3685,101.8340,0.0009591,0.99110840,0.0000,02/27.6583/2021,2000,g 13.0,4.0
# From MPEC 2023-J29
C/2021 D2 (ZTF),h,02/03.8602/2022,83.7853,305.6492,125.0405,1.001526,2.947312,2000,9.0,4.0
# From MPEC 2022-UY9
